TITAN 4B R/B            
1 26474U 00047B   22149.53050006  .00001762  00000+0  16005-3 0  9991
2 26474  67.9947 277.6367 0052081 139.6345 220.8682 14.96803763185618
ENVISAT                 
1 27386U 02009A   22149.53959318  .00000151  00000+0  63322-4 0  9994
2 27386  98.1824 131.5354 0001293  88.2394  21.5505 14.38126416 60742
IDEFIX & ARIANE 42P R/B 
1 27422U 02021B   22149.47751635  .00000155  00000+0  77504-4 0  9995
2 27422  98.4486  96.0449 0011052 295.9841  64.0203 14.29412749 46746
AQUA                    
1 27424U 02022A   22149.41493660  .00000526  00000+0  12636-3 0  9999
2 27424  98.2468  91.4868 0001037  62.8131  47.6578 14.57283393 67416
CZ-4B R/B               
1 27432U 02024C   22149.57717406  .00000020  00000+0  34556-4 0  9999
2 27432  99.0624 174.4176 0049843 331.1642 138.0712 14.14140042 34154
MIDORI II (ADEOS-II)    
1 27597U 02056A   22149.55136530  .00000148  00000+0  77705-4 0  9991
2 27597  98.6064  93.7087 0002227  78.9691 281.1740 14.27607500 13270
H-2A R/B                
1 27601U 02056E   22149.55928142  .00000141  00000+0  65906-4 0  9998
2 27601  98.1767 157.2810 0071086 318.5489 149.9373 14.32071197 16479
CZ-4B R/B               
1 28059U 03049C   22149.57234563  .00000208  00000+0  61383-4 0  9997
2 28059  98.5197  86.0815 0050990 124.2171 236.3871 14.52779107986077
CZ-2C R/B               
1 28222U 04012C   22149.56195766  .00003704  00000+0  21141-3 0  9991
2 28222  97.7702 130.0580 0046813 116.2902   5.4854 15.12464253993370
SL-16 R/B               
1 28353U 04021B   22149.54023095 -.00000034  00000+0  69012-5 0  9994
2 28353  71.0003 247.9480 0006171 316.5444  43.5191 14.14261421927670
CZ-4B R/B               
1 28415U 04035C   22149.54331348  .00002536  00000+0  16385-3 0  9992
2 28415  97.5168 190.4073 0051837  84.8429 275.8713 15.08025387970740
CZ-2C R/B               
1 28480U 04046B   22149.52397553  .00000075  00000+0  44077-4 0  9990
2 28480  98.0636 138.7741 0140369 278.4358  80.0935 14.25828818911741
ARIANE 5 R/B            
1 28499U 04049H   22149.60530399  .00000768  00000+0  10076-3 0  9999
2 28499  98.0949 266.1827 0092565 134.8210 236.7177 14.80404835941296
CZ-2D R/B               
1 28738U 05024B   22149.56876457  .00003590  00000+0  20256-3 0  9999
2 28738  97.3508 158.3426 0009853 237.9848 122.0427 15.13738051928895
SUZAKU (ASTRO-EII)      
1 28773U 05025A   22149.47530047  .00006947  00000+0  30143-3 0  9996
2 28773  31.3812  65.9991 0003925 181.3307 178.7331 15.20949088932132
ALOS (DAICHI)           
1 28931U 06002A   22149.50302868  .00001075  00000+0  21770-3 0  9993
2 28931  97.9342 115.0697 0002156  49.5086 310.6297 14.63172902871654
H-2A R/B                
1 28932U 06002B   22149.56772541  .00001907  00000+0  17458-3 0  9991
2 28932  98.2921 191.0221 0087446 153.2551 207.3217 14.93440595887227
AKARI (ASTRO-F)         
1 28939U 06005A   22149.15977437  .00019811  00000+0  37697-3 0  9997
2 28939  98.1968 219.9880 0070040 345.4297  14.4928 15.45555864890100
RESURS-DK 1             
1 29228U 06021A   22149.45294471  .00000892  00000+0  73012-4 0  9991
2 29228  69.9336 177.4385 0001309  95.2285 264.9025 15.03204193879527
GENESIS 1               
1 29252U 06029A   22149.39020553  .00004193  00000+0  19127-3 0  9991
2 29252  64.5202 133.6968 0060104 264.8888  94.5375 15.20553985876076
CZ-4B R/B               
1 29507U 06046C   22149.54938361  .00001710  00000+0  13336-3 0  9993
2 29507  97.7327 179.7184 0045481 292.8819  66.7607 15.01760060852034
CZ-2C R/B               
1 31114U 07010B   22149.45174074  .00000114  00000+0  71847-4 0  9994
2 31114  98.2396 323.8948 0059514 354.6274   5.4258 14.19429617783861
COSMO-SKYMED 1          
1 31598U 07023A   22149.56635217 -.00001569  00000+0 -19057-3 0  9998
2 31598  97.8879 333.5019 0001452  96.3310 263.7690 14.82154238810161
GENESIS 2               
1 31789U 07028A   22149.44878904  .00003535  00000+0  17131-3 0  9998
2 31789  64.4946 176.6345 0045986 317.6526  42.1051 15.19443450823010
COSMOS 2428             
1 31792U 07029A   22149.58233364  .00000349  00000+0  21422-3 0  9991
2 31792  70.9459 219.3571 0004735  82.2383 277.9275 14.12550152769187
SL-16 R/B               
1 31793U 07029B   22149.58706696 -.00000008  00000+0  20749-4 0  9990
2 31793  70.9758 192.4965 0002799 274.8032 197.9716 14.14478797770196
KORONAS-FOTON           
1 33504U 09003A   22149.26987774  .00002338  00000+0  11597-3 0  9996
2 33504  82.4428 235.0408 0017694 342.4140  17.6478 15.17116849735058
H-2A R/B                
1 38341U 12025E   22149.53694297  .00001087  00000+0  13232-3 0  9991
2 38341  98.5072   3.5486 0056044 107.1927 253.5432 14.84689467542848
CUSAT 2 & FALCON 9 R/B  
1 39271U 13055G   22149.58100932  .00029038  00000+0  63284-3 0  9999
2 39271  80.9593 215.9258 0533245 174.8956 185.8008 14.61785427454011
CZ-2C R/B               
1 39364U 13059B   22149.40335914  .00008294  00000+0  26947-3 0  9993
2 39364  97.1614 203.3751 0043822  42.3811 318.0802 15.31212987477294
SL-4 R/B                
1 39679U 14021B   22149.42768194  .00001603  00000+0  91132-4 0  9990
2 39679  51.6169  44.5569 0164608 252.0869 106.2095 15.08596949446243
ALOS-2                  
1 39766U 14029A   22149.53531287 -.00000294  00000+0 -32486-4 0  9992
2 39766  97.9211 246.9342 0001405  92.2079 267.9369 14.79467524432832
CZ-2C R/B               
1 40306U 14071B   22149.46932681  .00038010  00000+0  44958-3 0  9997
2 40306  97.4162 122.2339 0013618  88.8389 271.4428 15.61081149423934
SL-27 R/B               
1 40354U 14084B   22149.55984526  .00006168  00000+0  13465-3 0  9997
2 40354  74.7377 354.5299 0035228 184.8623 175.2255 15.43696059417683
YAOGAN-29               
1 41038U 15069A   22149.56365460  .00000519  00000+0  74245-4 0  9990
2 41038  98.0554 149.6662 0001911 115.4562 244.6843 14.80858907351492
ASTRO-H (HITOMI)        
1 41337U 16012A   22149.42599206  .00001145  00000+0  84489-4 0  9990
2 41337  31.0036 180.4879 0012273 258.7412 101.1844 14.99373794344268
HXMT (HUIYAN)           
1 42758U 17034A   22149.31113525  .00003206  00000+0  20501-3 0  9991
2 42758  43.0167  93.6012 0007869 168.3264 323.1249 15.10374508273280
CZ-2C R/B               
1 43521U 18054D   22149.33559960  .00003129  00000+0  16173-3 0  9996
2 43521  35.1524 114.6784 0080397 273.8244  85.3282 15.13040101216783
AEOLUS                  
1 43600U 18066A   22149.51591100  .00095203  00000+0  37312-3 0  9991
2 43600  96.7029 155.7550 0010314  86.7240 273.5213 15.86634237218124
SAOCOM 1A               
1 43641U 18076A   22149.43978246 -.00001371  00000+0 -16571-3 0  9997
2 43641  97.8886 336.4107 0001376  86.4680 273.6731 14.82141323196913
SAOCOM 1B               
1 46265U 20059A   22149.47094458  .00000317  00000+0  46315-4 0  9991
2 46265  97.8895 335.5173 0001453  82.6244 277.4995 14.82161944 94317
TIANHE                  
1 48274U 21035A   22149.51087609  .00023199  00000+0  27848-3 0  9995
2 48274  41.4721 332.4620 0001280 111.9287 294.0032 15.60342264 61859
